OBJECT_NAME,OBJECT_ID,EPOCH,MEAN_MOTION,ECCENTRICITY,INCLINATION,RA_OF_ASC_NODE,ARG_OF_PERICENTER,MEAN_ANOMALY,EPHEMERIS_TYPE,CLASSIFICATION_TYPE,NORAD_CAT_ID,ELEMENT_SET_NO,REV_AT_EPOCH,BSTAR,MEAN_MOTION_DOT,MEAN_MOTION_DDOT
CUBEBUG-2 (LO-74),2013-066AA,2026-07-18T08:14:03.677568,14.93979922,.00555829,97.8919,148.4608,284.7062,74.8001,0,U,39440,999,68164,.18660268E-3,.1985E-4,0
FUNCUBE-1 (AO-73),2013-066AE,2026-07-18T14:33:09.635328,15.09845015,.00379968,97.8296,171.7194,96.6399,263.9156,0,U,39444,999,68440,.26257376E-3,.4251E-4,0
UWE-3,2013-066AG,2026-07-17T19:50:06.876672,14.97209607,.0047603,97.8719,155.1139,215.4548,144.3506,0,U,39446,999,68216,.17707243E-3,.2032E-4,0
UNISAT-6,2014-033C,2026-07-18T15:57:04.934016,14.88373922,.00438944,97.7914,351.8313,326.1147,33.7267,0,U,40012,999,65084,.10770939E-3,.958E-5,0
DUCHIFAT-1,2014-033M,2026-07-18T03:55:10.668288,15.71597676,.00032592,98.0423,262.8485,233.3410,126.7552,0,U,40021,999,66060,.72542299E-3,.93801E-3,0
QB50P1,2014-033R,2026-07-18T07:39:18.658080,15.18693321,.0010487,98.0968,212.6585,115.5699,244.6619,0,U,40025,999,65775,.21985551E-3,.4488E-4,0
LILACSAT-2,2015-049K,2026-07-18T14:35:28.081824,15.52434844,.00085532,97.4622,237.6602,131.5470,228.6518,0,U,40908,999,60062,.16702314E-3,.10119E-3,0
FOX-1A (AO-85),2015-058D,2026-07-18T08:09:07.716096,14.91099552,.01326239,64.7725,182.1599,44.6185,316.5509,0,U,40967,999,11821,.15554856E-3,.1647E-4,0
CAS-2T & KS-1Q,2016-066G,2026-07-18T04:45:35.623008,14.44773637,.03421011,98.3813,274.5797,35.6619,326.6912,0,U,41847,999,50927,.71851879E-4,.451E-5,0
RADFXSAT (FOX-1B),2017-073E,2026-07-18T13:23:30.360192,15.13088152,.01483659,97.4661,66.1335,219.7444,139.2844,0,U,43017,999,47013,.14894574E-3,.3378E-4,0
DIWATA-2B,2018-084H,2026-07-18T13:52:56.417664,15.00570889,.00126464,98.1212,37.1613,74.0415,286.2200,0,U,43678,999,42092,.91320249E-4,.1088E-4,0
ES'HAIL 2,2018-090A,2026-07-18T11:38:03.449760,1.00272876,.00023457,0.0159,76.3340,81.6613,338.5852,0,U,43700,999,2799,0,.137E-5,0
FOX-1CLIFF (AO-95),2018-099N,2026-07-18T03:19:05.980224,15.27309721,.00074754,97.4363,259.2809,227.7066,132.3540,0,U,43770,999,41794,.22607484E-3,.5977E-4,0
ITASAT,2018-099AE,2026-07-18T13:41:42.884736,15.19404074,.0011101,97.4007,250.4605,236.9564,123.0605,0,U,43786,999,41767,.15183371E-3,.315E-4,0
JY1SAT (JO-97),2018-099AX,2026-07-18T03:25:52.114656,15.34577339,.00070997,97.4106,262.1024,149.2378,210.9282,0,U,43803,999,41837,.28599386E-3,.9509E-4,0
UWE-4,2018-111E,2026-07-18T06:16:27.391296,15.47940806,.0006584,97.5839,129.1275,182.8842,177.2370,0,U,43880,999,41558,.36001636E-3,.18713E-3,0
TIANYAN 01,2019-093C,2026-07-18T14:43:54.538752,14.86562759,.00132457,97.7517,271.0778,350.0904,10.0049,0,U,44881,999,35608,.56828505E-4,.45E-5,0
RS-44 & BREEZE-KM R/B,2019-096E,2026-07-18T14:09:45.438336,12.79748908,.02184788,82.5244,318.8390,71.0976,291.3672,0,U,44909,999,30636,.24229552E-4,.19E-6,0
SALSAT,2020-068K,2026-07-18T00:21:03.770208,15.30195257,.00094957,97.8861,203.9671,182.8082,177.3106,0,U,46495,999,32007,.14176866E-3,.4061E-4,0
XW-3 (CAS-9),2021-131B,2026-07-18T15:21:38.071872,14.41383938,.00043889,98.4990,291.8602,21.7641,338.3734,0,U,50466,999,23964,.12212251E-3,.351E-5,0
GREENCUBE (IO-117),2022-080E,2026-07-17T05:19:51.690720,6.42583336,.0009072,70.1407,287.8015,282.9900,76.9746,0,U,53109,999,9399,0,-.3E-7,0
UMKA 1 (RS40S),2023-091G,2026-07-18T14:33:27.568512,15.21142062,.00126958,97.5030,258.1868,18.0786,342.0898,0,U,57172,999,16878,.1302093E-3,.2834E-4,0
CUBESX-HSE 3 (RS42S),2023-091N,2026-07-18T14:22:39.543456,15.31932082,.00092996,97.5070,265.5972,349.4248,10.6796,0,U,57178,999,16923,.21819162E-3,.6655E-4,0
MONITOR-3 (RS58S),2023-091Q,2026-07-18T13:31:26.550336,15.28408885,.00106438,97.5062,263.2499,357.5653,2.5533,0,U,57180,999,16908,.17801971E-3,.4853E-4,0
MONITOR-4 (RS57S),2023-091S,2026-07-18T14:33:02.008800,15.28496473,.00106415,97.5055,263.2659,357.8685,2.2507,0,U,57182,999,16909,.18414293E-3,.5037E-4,0
MONITOR-2 (RS39S),2023-091U,2026-07-18T14:27:00.016128,15.19170926,.00110522,97.5052,257.6843,12.5861,347.5647,0,U,57184,999,16872,.10603398E-3,.2163E-4,0
SVYATOBOR 1 (RS60S),2023-091X,2026-07-18T15:32:10.062816,15.27094642,.0008381,97.5068,263.6464,352.0406,8.0699,0,U,57187,999,16911,.16230777E-3,.4241E-4,0
VIZARD-METEO (RS38S),2023-091Z,2026-07-18T14:27:53.632512,15.36936812,.00053735,97.5071,269.7367,324.8977,35.1912,0,U,57189,999,16951,.24157122E-3,.8645E-4,0
POLYTECH-UNIVERSE 3 (RS46S),2023-091AB,2026-07-18T14:59:59.014176,15.19384054,.00157488,97.5026,257.2113,26.2858,333.9172,0,U,57191,999,16872,.11536619E-3,.2378E-4,0
UTMN 2 (RS27S),2023-091AP,2026-07-18T12:49:38.127648,15.32747631,.00064165,97.5067,267.2035,337.0449,23.0505,0,U,57203,999,16934,.21061193E-3,.6583E-4,0
